[{"OBJECT_NAME":"GAOFEN-9 05","OBJECT_ID":"2020-058A","EPOCH":"2026-03-10T00:01:50.876256","MEAN_MOTION":15.30293976,"ECCENTRICITY":0.0010522,"INCLINATION":97.2228,"RA_OF_ASC_NODE":111.963,"ARG_OF_PERICENTER":91.0204,"MEAN_ANOMALY":269.2242,"EPHEMERIS_TYPE":0,"CLASSIFICATION_TYPE":"U","NORAD_CAT_ID":46232,"ELEMENT_SET_NO":999,"REV_AT_EPOCH":30843,"BSTAR":0.00025120304,"MEAN_MOTION_DOT":7.299e-5,"MEAN_MOTION_DDOT":0},{"OBJECT_NAME":"STARLINK-35696","OBJECT_ID":"2025-263E","EPOCH":"2026-03-09T03:08:59.387424","MEAN_MOTION":15.27607879,"ECCENTRICITY":0.00015752,"INCLINATION":43.0025,"RA_OF_ASC_NODE":353.837,"ARG_OF_PERICENTER":273.525,"MEAN_ANOMALY":86.5422,"EPHEMERIS_TYPE":0,"CLASSIFICATION_TYPE":"U","NORAD_CAT_ID":66489,"ELEMENT_SET_NO":999,"REV_AT_EPOCH":1881,"BSTAR":0.0020197984,"MEAN_MOTION_DOT":0.00055788,"MEAN_MOTION_DDOT":0}]
